{
  "type": "FeatureCollection",
  "features": [
    {
      "type": "Feature",
      "properties": {
        "norad_id": 30739,
        "name": "FENGYUN 1C DEB",
        "group": "fengyun-1c-debris",
        "lat": 34.51583585918603,
        "lon": 173.96975399743178,
        "alt_km": 886.7467681887028,
        "timestamp": "2025-12-27T03:58:44.429850+00:00",
        "meta_object_name": "FENGYUN 1C DEB",
        "meta_object_id": "1999-025ASZ",
        "meta_epoch": "2025-12-26T11:02:25.467072",
        "meta_mean_motion": 14.14974827,
        "meta_eccentricity": 0.0100087,
        "meta_inclination": 98.6936,
        "meta_ra_of_asc_node": 347.2423,
        "meta_arg_of_pericenter": 277.5939,
        "meta_mean_anomaly": 235.0768,
        "meta_ephemeris_type": 0,
        "meta_classification_type": "U",
        "meta_norad_cat_id": 30739,
        "meta_element_set_no": 999,
        "meta_rev_at_epoch": 97057,
        "meta_bstar": 0.00038431,
        "meta_mean_motion_dot": 7.36e-06,
        "meta_mean_motion_ddot": 0,
        "tle_line1": "1 30739U 99025ASZ 25360.46001698  .00000736  00000+0  38431-3 0  9994",
        "tle_line2": "2 30739  98.6936 347.2423 0100087 277.5939 235.0768 14.14974827970574"
      },
      "geometry": {
        "type": "Point",
        "coordinates": [
          173.96975399743178,
          34.51583585918603
        ]
      }
    },
    {
      "type": "Feature",
      "properties": {
        "norad_id": 30740,
        "name": "FENGYUN 1C DEB",
        "group": "fengyun-1c-debris",
        "lat": -71.38984826402614,
        "lon": 133.77191161061302,
        "alt_km": 746.7970496572179,
        "timestamp": "2025-12-27T03:58:44.429859+00:00",
        "meta_object_name": "FENGYUN 1C DEB",
        "meta_object_id": "1999-025ATA",
        "meta_epoch": "2025-12-26T18:23:46.711104",
        "meta_mean_motion": 14.52184449,
        "meta_eccentricity": 0.0030487,
        "meta_inclination": 98.688,
        "meta_ra_of_asc_node": 106.3526,
        "meta_arg_of_pericenter": 94.1968,
        "meta_mean_anomaly": 266.2711,
        "meta_ephemeris_type": 0,
        "meta_classification_type": "U",
        "meta_norad_cat_id": 30740,
        "meta_element_set_no": 999,
        "meta_rev_at_epoch": 97851,
        "meta_bstar": 0.0024641,
        "meta_mean_motion_dot": 0.00010018,
        "meta_mean_motion_ddot": 0,
        "tle_line1": "1 30740U 99025ATA 25360.76651286  .00010018  00000+0  24641-2 0  9994",
        "tle_line2": "2 30740  98.6880 106.3526 0030487  94.1968 266.2711 14.52184449978514"
      },
      "geometry": {
        "type": "Point",
        "coordinates": [
          133.77191161061302,
          -71.38984826402614
        ]
      }
    },
    {
      "type": "Feature",
      "properties": {
        "norad_id": 30741,
        "name": "FENGYUN 1C DEB",
        "group": "fengyun-1c-debris",
        "lat": -54.666110200445836,
        "lon": 22.440803982244336,
        "alt_km": 859.0887967587241,
        "timestamp": "2025-12-27T03:58:44.429868+00:00",
        "meta_object_name": "FENGYUN 1C DEB",
        "meta_object_id": "1999-025ATB",
        "meta_epoch": "2025-12-26T16:40:26.247072",
        "meta_mean_motion": 14.13242556,
        "meta_eccentricity": 0.0007203,
        "meta_inclination": 98.6792,
        "meta_ra_of_asc_node": 9.5414,
        "meta_arg_of_pericenter": 82.7992,
        "meta_mean_anomaly": 346.5402,
        "meta_ephemeris_type": 0,
        "meta_classification_type": "U",
        "meta_norad_cat_id": 30741,
        "meta_element_set_no": 999,
        "meta_rev_at_epoch": 97016,
        "meta_bstar": 0.0001622,
        "meta_mean_motion_dot": 2.61e-06,
        "meta_mean_motion_ddot": 0,
        "tle_line1": "1 30741U 99025ATB 25360.69474823  .00000261  00000+0  16220-3 0  9991",
        "tle_line2": "2 30741  98.6792   9.5414 0007203  82.7992 346.5402 14.13242556970160"
      },
      "geometry": {
        "type": "Point",
        "coordinates": [
          22.440803982244336,
          -54.666110200445836
        ]
      }
    },
    {
      "type": "Feature",
      "properties": {
        "norad_id": 30742,
        "name": "FENGYUN 1C DEB",
        "group": "fengyun-1c-debris",
        "lat": 23.688334275197295,
        "lon": -130.67365846937903,
        "alt_km": 812.4958333823715,
        "timestamp": "2025-12-27T03:58:44.429877+00:00",
        "meta_object_name": "FENGYUN 1C DEB",
        "meta_object_id": "1999-025ATC",
        "meta_epoch": "2025-12-26T15:55:02.011008",
        "meta_mean_motion": 14.10438621,
        "meta_eccentricity": 0.0071741,
        "meta_inclination": 98.8669,
        "meta_ra_of_asc_node": 44.9037,
        "meta_arg_of_pericenter": 187.9651,
        "meta_mean_anomaly": 297.9112,
        "meta_ephemeris_type": 0,
        "meta_classification_type": "U",
        "meta_norad_cat_id": 30742,
        "meta_element_set_no": 999,
        "meta_rev_at_epoch": 96238,
        "meta_bstar": 0.0015125,
        "meta_mean_motion_dot": 2.712e-05,
        "meta_mean_motion_ddot": 0,
        "tle_line1": "1 30742U 99025ATC 25360.66321772  .00002712  00000+0  15125-2 0  9998",
        "tle_line2": "2 30742  98.8669  44.9037 0071741 187.9651 297.9112 14.10438621962387"
      },
      "geometry": {
        "type": "Point",
        "coordinates": [
          -130.67365846937903,
          23.688334275197295
        ]
      }
    },
    {
      "type": "Feature",
      "properties": {
        "norad_id": 30744,
        "name": "FENGYUN 1C DEB",
        "group": "fengyun-1c-debris",
        "lat": 78.17774924162273,
        "lon": 16.005798166575275,
        "alt_km": 593.9998374218721,
        "timestamp": "2025-12-27T03:58:44.429886+00:00",
        "meta_object_name": "FENGYUN 1C DEB",
        "meta_object_id": "1999-025ATE",
        "meta_epoch": "2025-12-25T21:36:58.783968",
        "meta_mean_motion": 14.90651884,
        "meta_eccentricity": 0.0010384,
        "meta_inclination": 98.7297,
        "meta_ra_of_asc_node": 147.3782,
        "meta_arg_of_pericenter": 245.2408,
        "meta_mean_anomaly": 267.5961,
        "meta_ephemeris_type": 0,
        "meta_classification_type": "U",
        "meta_norad_cat_id": 30744,
        "meta_element_set_no": 999,
        "meta_rev_at_epoch": 98284,
        "meta_bstar": 0.0047286,
        "meta_mean_motion_dot": 0.0004662,
        "meta_mean_motion_ddot": 0,
        "tle_line1": "1 30744U 99025ATE 25359.90068037  .00046620  00000+0  47286-2 0  9996",
        "tle_line2": "2 30744  98.7297 147.3782 0010384 245.2408 267.5961 14.90651884982848"
      },
      "geometry": {
        "type": "Point",
        "coordinates": [
          16.005798166575275,
          78.17774924162273
        ]
      }
    },
    {
      "type": "Feature",
      "properties": {
        "norad_id": 30746,
        "name": "FENGYUN 1C DEB",
        "group": "fengyun-1c-debris",
        "lat": -58.21921346416124,
        "lon": -162.79962478985206,
        "alt_km": 776.9153610396397,
        "timestamp": "2025-12-27T03:58:44.429895+00:00",
        "meta_object_name": "FENGYUN 1C DEB",
        "meta_object_id": "1999-025ATG",
        "meta_epoch": "2025-12-26T18:43:57.620928",
        "meta_mean_motion": 14.27546471,
        "meta_eccentricity": 0.0045998,
        "meta_inclination": 99.0574,
        "meta_ra_of_asc_node": 181.8818,
        "meta_arg_of_pericenter": 277.3152,
        "meta_mean_anomaly": 204.2995,
        "meta_ephemeris_type": 0,
        "meta_classification_type": "U",
        "meta_norad_cat_id": 30746,
        "meta_element_set_no": 999,
        "meta_rev_at_epoch": 97646,
        "meta_bstar": 0.00048363,
        "meta_mean_motion_dot": 1.155e-05,
        "meta_mean_motion_ddot": 0,
        "tle_line1": "1 30746U 99025ATG 25360.78052802  .00001155  00000+0  48363-3 0  9991",
        "tle_line2": "2 30746  99.0574 181.8818 0045998 277.3152 204.2995 14.27546471976467"
      },
      "geometry": {
        "type": "Point",
        "coordinates": [
          -162.79962478985206,
          -58.21921346416124
        ]
      }
    },
    {
      "type": "Feature",
      "properties": {
        "norad_id": 30749,
        "name": "FENGYUN 1C DEB",
        "group": "fengyun-1c-debris",
        "lat": -57.14204001069552,
        "lon": 41.57074989996662,
        "alt_km": 914.8231709351539,
        "timestamp": "2025-12-27T03:58:44.429905+00:00",
        "meta_object_name": "FENGYUN 1C DEB",
        "meta_object_id": "1999-025ATK",
        "meta_epoch": "2025-12-26T07:40:25.506624",
        "meta_mean_motion": 13.99838309,
        "meta_eccentricity": 0.0056492,
        "meta_inclination": 98.8855,
        "meta_ra_of_asc_node": 26.7329,
        "meta_arg_of_pericenter": 194.7869,
        "meta_mean_anomaly": 165.1646,
        "meta_ephemeris_type": 0,
        "meta_classification_type": "U",
        "meta_norad_cat_id": 30749,
        "meta_element_set_no": 999,
        "meta_rev_at_epoch": 96156,
        "meta_bstar": -5.6431e-05,
        "meta_mean_motion_dot": -1.27e-06,
        "meta_mean_motion_ddot": 0,
        "tle_line1": "1 30749U 99025ATK 25360.31973966 -.00000127  00000+0 -56431-4 0  9992",
        "tle_line2": "2 30749  98.8855  26.7329 0056492 194.7869 165.1646 13.99838309961566"
      },
      "geometry": {
        "type": "Point",
        "coordinates": [
          41.57074989996662,
          -57.14204001069552
        ]
      }
    }
  ]
}